*******************************************************************************
Ephemeris / WWW_USER Mon Jul 15 19:04:11 2024 Pasadena, USA      / Horizons    
*******************************************************************************
Target body name: (2018 RD5)                      {source: JPL#11}
Center body name: Earth (399)                     {source: DE441}
Center-site name: Gemini South Obs., Cerro Pachon
*******************************************************************************
Start time      : A.D. 2019-Jan-25 23:54:00.0000 UT      
Stop  time      : A.D. 2019-Jan-26 09:56:00.0000 UT      
Step-size       : 1 minutes
*******************************************************************************
Target pole/equ : undefined
Target radii    : undefined                                                    
Center geodetic : 289.2634, -30.2406227, 2.71233  {E-lon(deg),Lat(deg),Alt(km)}
Center cylindric: 289.2634,5517.21435,-3194.81213 {E-lon(deg),Dxy(km),Dz(km)}
Center pole/equ : ITRF93                          {East-longitude positive}
Center radii    : 6378.137, 6378.137, 6356.752 km {Equator_a, b, pole_c}       
Target primary  : Sun
Vis. interferer : MOON (R_eq= 1737.400) km        {source: DE441}
Rel. light bend : Sun                             {source: DE441}
Rel. lght bnd GM: 1.3271E+11 km^3/s^2                                          
Small-body perts: Yes                             {source: SB441-N16}
Atmos refraction: NO (AIRLESS)
RA format       : HMS
Time format     : CAL 
Calendar mode   : Mixed Julian/Gregorian
RTS-only print  : NO       
EOP file        : eop.240715.p241008                                           
EOP coverage    : DATA-BASED 1962-JAN-20 TO 2024-JUL-15. PREDICTS-> 2024-OCT-07
Units conversion: 1 au= 149597870.700 km, c= 299792.458 km/s, 1 day= 86400.0 s 
Table cut-offs 1: Elevation (-90.0deg=NO ),Airmass (>38.000=NO), Daylight (YES)
Table cut-offs 2: Solar elongation (  0.0,180.0=NO ),Local Hour Angle( 0.0=NO )
Table cut-offs 3: RA/DEC angular rate (     0.0=NO )                           
*******************************************************************************
Initial IAU76/J2000 heliocentric ecliptic osculating elements (au, days, deg.):
  EPOCH=  2458378.5 ! 2018-Sep-17.00 (TDB)         Residual RMS= .55339        
   EC= .2891632988519429   QR= 1.009650912138325   TP= 2458360.6433297051      
   OM= 171.0145363394364   W=  163.7983400129293   IN= 8.474307805886117       
  Equivalent ICRF heliocentric cartesian coordinates (au, au/d):
   X= 1.017757009008053E+00  Y=-8.967367621791844E-02  Z=-4.840656937149759E-02
  VX= 3.309922676318766E-03 VY= 1.832358809606965E-02 VZ= 4.854018792897502E-03
Asteroid physical parameters (km, seconds, rotational period in hours):        
   GM= n.a.                RAD= n.a.               ROTPER= n.a.                
   H= 25.9                 G= .150                 B-V= n.a.                   
                           ALBEDO= n.a.            STYP= n.a.                  
*******************************************************************************
 Date__(UT)__HR:MN     R.A._________(ICRF)_________DEC
******************************************************
$$SOE
 2019-Jan-25 23:54 C   03 46 16.511251 +05 00 14.55817
 2019-Jan-25 23:55 C   03 46 16.571922 +05 00 15.24015
 2019-Jan-25 23:56 C   03 46 16.632592 +05 00 15.92212
 2019-Jan-25 23:57 C   03 46 16.693262 +05 00 16.60407
 2019-Jan-25 23:58 C   03 46 16.753933 +05 00 17.28600
 2019-Jan-25 23:59 C   03 46 16.814603 +05 00 17.96791
 2019-Jan-26 00:00 C   03 46 16.875272 +05 00 18.64979
 2019-Jan-26 00:01 C   03 46 16.935942 +05 00 19.33166
 2019-Jan-26 00:02 C   03 46 16.996612 +05 00 20.01351
 2019-Jan-26 00:03 C   03 46 17.057282 +05 00 20.69534
 2019-Jan-26 00:04 C   03 46 17.117952 +05 00 21.37715
 2019-Jan-26 00:05 C   03 46 17.178623 +05 00 22.05894
 2019-Jan-26 00:06 C   03 46 17.239293 +05 00 22.74071
 2019-Jan-26 00:07 C   03 46 17.299964 +05 00 23.42246
 2019-Jan-26 00:08 C   03 46 17.360635 +05 00 24.10419
 2019-Jan-26 00:09 C   03 46 17.421306 +05 00 24.78590
 2019-Jan-26 00:10 C   03 46 17.481978 +05 00 25.46759
 2019-Jan-26 00:11 Ct  03 46 17.542650 +05 00 26.14927
 2019-Jan-26 00:12 N   03 46 17.603323 +05 00 26.83092
 2019-Jan-26 00:13 N   03 46 17.663997 +05 00 27.51255
 2019-Jan-26 00:14 N   03 46 17.724671 +05 00 28.19416
 2019-Jan-26 00:15 N   03 46 17.785345 +05 00 28.87575
 2019-Jan-26 00:16 N   03 46 17.846021 +05 00 29.55733
 2019-Jan-26 00:17 N   03 46 17.906697 +05 00 30.23888
 2019-Jan-26 00:18 N   03 46 17.967374 +05 00 30.92041
 2019-Jan-26 00:19 N   03 46 18.028052 +05 00 31.60192
 2019-Jan-26 00:20 N   03 46 18.088730 +05 00 32.28342
 2019-Jan-26 00:21 N   03 46 18.149410 +05 00 32.96489
 2019-Jan-26 00:22 N   03 46 18.210091 +05 00 33.64634
 2019-Jan-26 00:23 N   03 46 18.270772 +05 00 34.32778
 2019-Jan-26 00:24 N   03 46 18.331455 +05 00 35.00919
 2019-Jan-26 00:25 N   03 46 18.392139 +05 00 35.69059
 2019-Jan-26 00:26 N   03 46 18.452824 +05 00 36.37196
 2019-Jan-26 00:27 N   03 46 18.513511 +05 00 37.05332
 2019-Jan-26 00:28 N   03 46 18.574198 +05 00 37.73465
 2019-Jan-26 00:29 N   03 46 18.634887 +05 00 38.41597
 2019-Jan-26 00:30 N   03 46 18.695578 +05 00 39.09726
 2019-Jan-26 00:31 N   03 46 18.756270 +05 00 39.77854
 2019-Jan-26 00:32 N   03 46 18.816963 +05 00 40.45980
 2019-Jan-26 00:33 N   03 46 18.877658 +05 00 41.14103
 2019-Jan-26 00:34 N   03 46 18.938355 +05 00 41.82225
 2019-Jan-26 00:35 N   03 46 18.999053 +05 00 42.50345
 2019-Jan-26 00:36 N   03 46 19.059753 +05 00 43.18463
 2019-Jan-26 00:37 N   03 46 19.120454 +05 00 43.86578
 2019-Jan-26 00:38 N   03 46 19.181158 +05 00 44.54692
 2019-Jan-26 00:39 N   03 46 19.241863 +05 00 45.22804
 2019-Jan-26 00:40 N   03 46 19.302570 +05 00 45.90914
 2019-Jan-26 00:41 N   03 46 19.363279 +05 00 46.59022
 2019-Jan-26 00:42 N   03 46 19.423990 +05 00 47.27128
 2019-Jan-26 00:43 N   03 46 19.484703 +05 00 47.95232
 2019-Jan-26 00:44 A   03 46 19.545419 +05 00 48.63334
 2019-Jan-26 00:45 A   03 46 19.606136 +05 00 49.31434
 2019-Jan-26 00:46 A   03 46 19.666855 +05 00 49.99532
 2019-Jan-26 00:47 A   03 46 19.727577 +05 00 50.67628
 2019-Jan-26 00:48 A   03 46 19.788301 +05 00 51.35723
 2019-Jan-26 00:49 A   03 46 19.849027 +05 00 52.03815
 2019-Jan-26 00:50 A   03 46 19.909756 +05 00 52.71905
 2019-Jan-26 00:51 A   03 46 19.970487 +05 00 53.39994
 2019-Jan-26 00:52 A   03 46 20.031221 +05 00 54.08080
 2019-Jan-26 00:53 A   03 46 20.091957 +05 00 54.76164
 2019-Jan-26 00:54 A   03 46 20.152695 +05 00 55.44247
 2019-Jan-26 00:55 A   03 46 20.213437 +05 00 56.12327
 2019-Jan-26 00:56 A   03 46 20.274180 +05 00 56.80406
 2019-Jan-26 00:57 A   03 46 20.334927 +05 00 57.48483
 2019-Jan-26 00:58 A   03 46 20.395676 +05 00 58.16557
 2019-Jan-26 00:59 A   03 46 20.456429 +05 00 58.84630
 2019-Jan-26 01:00 A   03 46 20.517184 +05 00 59.52701
 2019-Jan-26 01:01 A   03 46 20.577942 +05 01 00.20770
 2019-Jan-26 01:02 A   03 46 20.638702 +05 01 00.88837
 2019-Jan-26 01:03 A   03 46 20.699466 +05 01 01.56902
 2019-Jan-26 01:04 A   03 46 20.760233 +05 01 02.24965
 2019-Jan-26 01:05 A   03 46 20.821003 +05 01 02.93026
 2019-Jan-26 01:06 A   03 46 20.881776 +05 01 03.61085
 2019-Jan-26 01:07 A   03 46 20.942553 +05 01 04.29142
 2019-Jan-26 01:08 A   03 46 21.003332 +05 01 04.97197
 2019-Jan-26 01:09 A   03 46 21.064115 +05 01 05.65251
 2019-Jan-26 01:10 A   03 46 21.124901 +05 01 06.33302
 2019-Jan-26 01:11 A   03 46 21.185691 +05 01 07.01352
 2019-Jan-26 01:12 A   03 46 21.246484 +05 01 07.69399
 2019-Jan-26 01:13 A   03 46 21.307280 +05 01 08.37445
 2019-Jan-26 01:14 A   03 46 21.368080 +05 01 09.05489
 2019-Jan-26 01:15 A   03 46 21.428884 +05 01 09.73531
 2019-Jan-26 01:16 A   03 46 21.489691 +05 01 10.41570
 2019-Jan-26 01:17     03 46 21.550502 +05 01 11.09608
 2019-Jan-26 01:18     03 46 21.611316 +05 01 11.77644
 2019-Jan-26 01:19     03 46 21.672135 +05 01 12.45679
 2019-Jan-26 01:20     03 46 21.732957 +05 01 13.13711
 2019-Jan-26 01:21     03 46 21.793783 +05 01 13.81741
 2019-Jan-26 01:22     03 46 21.854612 +05 01 14.49770
 2019-Jan-26 01:23     03 46 21.915446 +05 01 15.17796
 2019-Jan-26 01:24     03 46 21.976284 +05 01 15.85821
 2019-Jan-26 01:25     03 46 22.037126 +05 01 16.53843
 2019-Jan-26 01:26     03 46 22.097972 +05 01 17.21864
 2019-Jan-26 01:27     03 46 22.158822 +05 01 17.89883
 2019-Jan-26 01:28     03 46 22.219676 +05 01 18.57900
 2019-Jan-26 01:29     03 46 22.280534 +05 01 19.25915
 2019-Jan-26 01:30     03 46 22.341397 +05 01 19.93929
 2019-Jan-26 01:31     03 46 22.402264 +05 01 20.61940
 2019-Jan-26 01:32     03 46 22.463135 +05 01 21.29949
 2019-Jan-26 01:33     03 46 22.524011 +05 01 21.97957
 2019-Jan-26 01:34     03 46 22.584891 +05 01 22.65963
 2019-Jan-26 01:35     03 46 22.645776 +05 01 23.33967
 2019-Jan-26 01:36     03 46 22.706665 +05 01 24.01968
 2019-Jan-26 01:37     03 46 22.767559 +05 01 24.69969
 2019-Jan-26 01:38     03 46 22.828457 +05 01 25.37967
 2019-Jan-26 01:39     03 46 22.889360 +05 01 26.05963
 2019-Jan-26 01:40     03 46 22.950268 +05 01 26.73957
 2019-Jan-26 01:41     03 46 23.011181 +05 01 27.41950
 2019-Jan-26 01:42     03 46 23.072098 +05 01 28.09941
 2019-Jan-26 01:43     03 46 23.133021 +05 01 28.77930
 2019-Jan-26 01:44     03 46 23.193948 +05 01 29.45917
 2019-Jan-26 01:45     03 46 23.254880 +05 01 30.13902
 2019-Jan-26 01:46     03 46 23.315817 +05 01 30.81885
 2019-Jan-26 01:47     03 46 23.376759 +05 01 31.49867
 2019-Jan-26 01:48     03 46 23.437706 +05 01 32.17846
 2019-Jan-26 01:49     03 46 23.498659 +05 01 32.85824
 2019-Jan-26 01:50     03 46 23.559616 +05 01 33.53800
 2019-Jan-26 01:51     03 46 23.620579 +05 01 34.21774
 2019-Jan-26 01:52     03 46 23.681547 +05 01 34.89746
 2019-Jan-26 01:53     03 46 23.742521 +05 01 35.57717
 2019-Jan-26 01:54     03 46 23.803499 +05 01 36.25685
 2019-Jan-26 01:55     03 46 23.864483 +05 01 36.93652
 2019-Jan-26 01:56     03 46 23.925473 +05 01 37.61617
